CCSDS_OMM_VERS = 2.0
CREATION_DATE  = 
ORIGINATOR     = 

OBJECT_NAME    = OKEAN-3
OBJECT_ID      = 1991-039A
CENTER_NAME    = EARTH
REF_FRAME      = TEME
TIME_SYSTEM    = UTC
MEAN_ELEMENT_THEORY = SGP/SGP4

EPOCH          = 2025-11-01T11:55:40.107936
MEAN_MOTION    = 15.03693771
ECCENTRICITY   = .00157876
INCLINATION    = 82.5129
RA_OF_ASC_NODE = 100.9524
ARG_OF_PERICENTER = 50.6792
MEAN_ANOMALY   = 309.5831

EPHEMERIS_TYPE = 0
CLASSIFICATION_TYPE = U
NORAD_CAT_ID   = 21397
ELEMENT_SET_NO = 999
REV_AT_EPOCH   = 84576
BSTAR          = .29467759E-3
MEAN_MOTION_DOT = .4075E-4
MEAN_MOTION_DDOT = 0

CCSDS_OMM_VERS = 2.0
CREATION_DATE  = 
ORIGINATOR     = 

OBJECT_NAME    = COSMOS 2151
OBJECT_ID      = 1991-042A
CENTER_NAME    = EARTH
REF_FRAME      = TEME
TIME_SYSTEM    = UTC
MEAN_ELEMENT_THEORY = SGP/SGP4

EPOCH          = 2025-11-01T14:03:48.571776
MEAN_MOTION    = 14.99459933
ECCENTRICITY   = .00138177
INCLINATION    = 82.4992
RA_OF_ASC_NODE = 207.1482
ARG_OF_PERICENTER = 126.5363
MEAN_ANOMALY   = 233.7135

EPHEMERIS_TYPE = 0
CLASSIFICATION_TYPE = U
NORAD_CAT_ID   = 21422
ELEMENT_SET_NO = 999
REV_AT_EPOCH   = 84399
BSTAR          = .18721856E-3
MEAN_MOTION_DOT = .2325E-4
MEAN_MOTION_DDOT = 0

CCSDS_OMM_VERS = 2.0
CREATION_DATE  = 
ORIGINATOR     = 

OBJECT_NAME    = SL-14 R/B
OBJECT_ID      = 1991-042B
CENTER_NAME    = EARTH
REF_FRAME      = TEME
TIME_SYSTEM    = UTC
MEAN_ELEMENT_THEORY = SGP/SGP4

EPOCH          = 2025-11-01T12:29:25.482912
MEAN_MOTION    = 14.81683121
ECCENTRICITY   = .00157309
INCLINATION    = 82.4935
RA_OF_ASC_NODE = 340.3808
ARG_OF_PERICENTER = 305.4402
MEAN_ANOMALY   = 54.5342

EPHEMERIS_TYPE = 0
CLASSIFICATION_TYPE = U
NORAD_CAT_ID   = 21423
ELEMENT_SET_NO = 999
REV_AT_EPOCH   = 83409
BSTAR          = .65225327E-4
MEAN_MOTION_DOT = .537E-5
MEAN_MOTION_DDOT = 0

CCSDS_OMM_VERS = 2.0
CREATION_DATE  = 
ORIGINATOR     = 

OBJECT_NAME    = ERS-1
OBJECT_ID      = 1991-050A
CENTER_NAME    = EARTH
REF_FRAME      = TEME
TIME_SYSTEM    = UTC
MEAN_ELEMENT_THEORY = SGP/SGP4

EPOCH          = 2025-11-01T10:39:45.985536
MEAN_MOTION    = 14.39316317
ECCENTRICITY   = .0031282
INCLINATION    = 98.7931
RA_OF_ASC_NODE = 315.4609
ARG_OF_PERICENTER = 221.2785
MEAN_ANOMALY   = 138.6036

EPHEMERIS_TYPE = 0
CLASSIFICATION_TYPE = U
NORAD_CAT_ID   = 21574
ELEMENT_SET_NO = 999
REV_AT_EPOCH   = 79728
BSTAR          = .15293008E-3
MEAN_MOTION_DOT = .431E-5
MEAN_MOTION_DDOT = 0

CCSDS_OMM_VERS = 2.0
CREATION_DATE  = 
ORIGINATOR     = 

OBJECT_NAME    = ARIANE 40 R/B
OBJECT_ID      = 1991-050F
CENTER_NAME    = EARTH
REF_FRAME      = TEME
TIME_SYSTEM    = UTC
MEAN_ELEMENT_THEORY = SGP/SGP4

EPOCH          = 2025-11-01T14:12:41.386752
MEAN_MOTION    = 14.42759571
ECCENTRICITY   = .00043935
INCLINATION    = 98.2227
RA_OF_ASC_NODE = 357.4961
ARG_OF_PERICENTER = 100.8959
MEAN_ANOMALY   = 259.2726

EPHEMERIS_TYPE = 0
CLASSIFICATION_TYPE = U
NORAD_CAT_ID   = 21610
ELEMENT_SET_NO = 999
REV_AT_EPOCH   = 80052
BSTAR          = .15225116E-3
MEAN_MOTION_DOT = .465E-5
MEAN_MOTION_DDOT = 0

CCSDS_OMM_VERS = 2.0
CREATION_DATE  = 
ORIGINATOR     = 

OBJECT_NAME    = INTERCOSMOS 25
OBJECT_ID      = 1991-086A
CENTER_NAME    = EARTH
REF_FRAME      = TEME
TIME_SYSTEM    = UTC
MEAN_ELEMENT_THEORY = SGP/SGP4

EPOCH          = 2025-11-01T06:29:56.065056
MEAN_MOTION    = 12.11552268
ECCENTRICITY   = .14888831
INCLINATION    = 82.6089
RA_OF_ASC_NODE = 27.6356
ARG_OF_PERICENTER = 33.7591
MEAN_ANOMALY   = 334.9858

EPHEMERIS_TYPE = 0
CLASSIFICATION_TYPE = U
NORAD_CAT_ID   = 21819
ELEMENT_SET_NO = 999
REV_AT_EPOCH   = 48113
BSTAR          = .31751058E-3
MEAN_MOTION_DOT = .1642E-4
MEAN_MOTION_DDOT = 0

CCSDS_OMM_VERS = 2.0
CREATION_DATE  = 
ORIGINATOR     = 

OBJECT_NAME    = SL-8 R/B
OBJECT_ID      = 1992-008B
CENTER_NAME    = EARTH
REF_FRAME      = TEME
TIME_SYSTEM    = UTC
MEAN_ELEMENT_THEORY = SGP/SGP4

EPOCH          = 2025-11-01T14:41:48.439680
MEAN_MOTION    = 13.75946697
ECCENTRICITY   = .00358558
INCLINATION    = 82.9299
RA_OF_ASC_NODE = 3.0352
ARG_OF_PERICENTER = 131.1055
MEAN_ANOMALY   = 22.3991

EPHEMERIS_TYPE = 0
CLASSIFICATION_TYPE = U
NORAD_CAT_ID   = 21876
ELEMENT_SET_NO = 999
REV_AT_EPOCH   = 69180
BSTAR          = .93827472E-4
MEAN_MOTION_DOT = .107E-5
MEAN_MOTION_DDOT = 0

CCSDS_OMM_VERS = 2.0
CREATION_DATE  = 
ORIGINATOR     = 

OBJECT_NAME    = SL-8 R/B
OBJECT_ID      = 1992-020B
CENTER_NAME    = EARTH
REF_FRAME      = TEME
TIME_SYSTEM    = UTC
MEAN_ELEMENT_THEORY = SGP/SGP4

EPOCH          = 2025-11-01T14:52:21.556416
MEAN_MOTION    = 13.75519834
ECCENTRICITY   = .00277862
INCLINATION    = 82.9297
RA_OF_ASC_NODE = 248.8510
ARG_OF_PERICENTER = 297.0759
MEAN_ANOMALY   = 236.0653

EPHEMERIS_TYPE = 0
CLASSIFICATION_TYPE = U
NORAD_CAT_ID   = 21938
ELEMENT_SET_NO = 999
REV_AT_EPOCH   = 68352
BSTAR          = .43303492E-4
MEAN_MOTION_DOT = .57E-6
MEAN_MOTION_DDOT = 0

CCSDS_OMM_VERS = 2.0
CREATION_DATE  = 
ORIGINATOR     = 

OBJECT_NAME    = USA 81
OBJECT_ID      = 1992-023A
CENTER_NAME    = EARTH
REF_FRAME      = TEME
TIME_SYSTEM    = UTC
MEAN_ELEMENT_THEORY = SGP/SGP4

EPOCH          = 2025-11-01T11:12:44.513568
MEAN_MOTION    = 14.32303955
ECCENTRICITY   = .00027609
INCLINATION    = 85.0116
RA_OF_ASC_NODE = 205.3713
ARG_OF_PERICENTER = 86.2405
MEAN_ANOMALY   = 273.9103

EPHEMERIS_TYPE = 0
CLASSIFICATION_TYPE = U
NORAD_CAT_ID   = 21949
ELEMENT_SET_NO = 999
REV_AT_EPOCH   = 7643
BSTAR          = .82957943E-4
MEAN_MOTION_DOT = .244E-5
MEAN_MOTION_DDOT = 0

CCSDS_OMM_VERS = 2.0
CREATION_DATE  = 
ORIGINATOR     = 

OBJECT_NAME    = COSMOS 2219
OBJECT_ID      = 1992-076A
CENTER_NAME    = EARTH
REF_FRAME      = TEME
TIME_SYSTEM    = UTC
MEAN_ELEMENT_THEORY = SGP/SGP4

EPOCH          = 2025-11-01T09:54:33.093792
MEAN_MOTION    = 14.14058216
ECCENTRICITY   = .00169595
INCLINATION    = 71.0595
RA_OF_ASC_NODE = 286.2195
ARG_OF_PERICENTER = 30.2606
MEAN_ANOMALY   = 329.9492

EPHEMERIS_TYPE = 0
CLASSIFICATION_TYPE = U
NORAD_CAT_ID   = 22219
ELEMENT_SET_NO = 999
REV_AT_EPOCH   = 70024
BSTAR          = .24867204E-3
MEAN_MOTION_DOT = .427E-5
MEAN_MOTION_DDOT = 0

CCSDS_OMM_VERS = 2.0
CREATION_DATE  = 
ORIGINATOR     = 

OBJECT_NAME    = SL-16 R/B
OBJECT_ID      = 1992-076B
CENTER_NAME    = EARTH
REF_FRAME      = TEME
TIME_SYSTEM    = UTC
MEAN_ELEMENT_THEORY = SGP/SGP4

EPOCH          = 2025-11-01T11:40:32.547648
MEAN_MOTION    = 14.16829986
ECCENTRICITY   = .00149445
INCLINATION    = 70.9979
RA_OF_ASC_NODE = 98.4271
ARG_OF_PERICENTER = 287.5804
MEAN_ANOMALY   = 134.5543

EPHEMERIS_TYPE = 0
CLASSIFICATION_TYPE = U
NORAD_CAT_ID   = 22220
ELEMENT_SET_NO = 999
REV_AT_EPOCH   = 70367
BSTAR          = .145603E-3
MEAN_MOTION_DOT = .244E-5
MEAN_MOTION_DDOT = 0

CCSDS_OMM_VERS = 2.0
CREATION_DATE  = 
ORIGINATOR     = 

OBJECT_NAME    = COSMOS 2221
OBJECT_ID      = 1992-080A
CENTER_NAME    = EARTH
REF_FRAME      = TEME
TIME_SYSTEM    = UTC
MEAN_ELEMENT_THEORY = SGP/SGP4

EPOCH          = 2025-11-01T12:55:58.862208
MEAN_MOTION    = 14.95511561
ECCENTRICITY   = .00131828
INCLINATION    = 82.5063
RA_OF_ASC_NODE = 41.7443
ARG_OF_PERICENTER = 261.9624
MEAN_ANOMALY   = 98.0101

EPHEMERIS_TYPE = 0
CLASSIFICATION_TYPE = U
NORAD_CAT_ID   = 22236
ELEMENT_SET_NO = 999
REV_AT_EPOCH   = 76163
BSTAR          = .26912474E-3
MEAN_MOTION_DOT = .301E-4
MEAN_MOTION_DDOT = 0

