OKEAN-3                 
1 21397U 91039A   25305.49699199  .00004075  00000+0  29468-3 0  9992
2 21397  82.5129 100.9524 0015787  50.6792 309.5831 15.03693771845760
COSMOS 2151             
1 21422U 91042A   25305.58597884  .00002325  00000+0  18722-3 0  9990
2 21422  82.4992 207.1482 0013817 126.5363 233.7135 14.99459933843990
SL-14 R/B               
1 21423U 91042B   25305.52043383  .00000537  00000+0  65225-4 0  9999
2 21423  82.4935 340.3808 0015730 305.4402  54.5342 14.81683121834097
ERS-1                   
1 21574U 91050A   25305.44428224  .00000431  00000+0  15293-3 0  9999
2 21574  98.7931 315.4609 0031282 221.2785 138.6036 14.39316317797287
ARIANE 40 R/B           
1 21610U 91050F   25305.59214568  .00000465  00000+0  15225-3 0  9992
2 21610  98.2227 357.4961 0004393 100.8959 259.2726 14.42759571800521
INTERCOSMOS 25          
1 21819U 91086A   25305.27078779  .00001642  00000+0  31751-3 0  9999
2 21819  82.6089  27.6356 1488883  33.7591 334.9858 12.11552268481133
SL-8 R/B                
1 21876U 92008B   25305.61236620  .00000107  00000+0  93827-4 0  9994
2 21876  82.9299   3.0352 0035855 131.1055  22.3991 13.75946697691807
SL-8 R/B                
1 21938U 92020B   25305.61969394  .00000057  00000+0  43303-4 0  9996
2 21938  82.9297 248.8510 0027786 297.0759 236.0653 13.75519834683524
USA 81                  
1 21949U 92023A   25305.46718187  .00000244  00000+0  82958-4 0  9993
2 21949  85.0116 205.3713 0002760  86.2405 273.9103 14.32303955 76439
COSMOS 2219             
1 22219U 92076A   25305.41288303  .00000427  00000+0  24867-3 0  9996
2 22219  71.0595 286.2195 0016959  30.2606 329.9492 14.14058216700248
SL-16 R/B               
1 22220U 92076B   25305.48648782  .00000244  00000+0  14560-3 0  9992
2 22220  70.9979  98.4271 0014944 287.5804 134.5543 14.16829986703670
COSMOS 2221             
1 22236U 92080A   25305.53887572  .00003010  00000+0  26912-3 0  9990
2 22236  82.5063  41.7443 0013182 261.9624  98.0101 14.95511561761639
